UNKNOWN                 
1 81599U          22225.44167762  .00000126  00000+0  33676-3 0  9998
2 81599  67.2987  29.0388 0262111 237.7690 150.3308 13.29340236423169
UNKNOWN                 
1 81614U 76077    22225.08049871  .00004693  00000+0  34747-1 0  9994
2 81614 101.9056 259.1116 0394184 213.2716 144.2982 12.22063496388385
UNKNOWN                 
1 81615U 92021    22225.85946617  .00000388  00000+0  16910-3 0  9992
2 81615  65.8319 353.8318 0825142 333.9267  22.2304 13.23846229421203
UNKNOWN                 
1 81617U 73086    22226.55492411  .00000105  00000+0  88779-3 0  9999
2 81617 101.3059  78.8064 0038893 113.7816 246.7345 12.56316931400311
UNKNOWN                 
1 81624U          22225.43075728  .00001003  00000+0  25558-3 0  9991
2 81624  66.9866 232.0889 0090252 163.0358 197.3807 14.52468094461986
UNKNOWN                 
1 81626U          22226.03067562  .00033343  00000+0  48299-2 0  9995
2 81626  71.0000  78.5796 0020682  76.8573 283.4887 14.75790601450255
UNKNOWN                 
1 81640U          22226.02922224  .00000109  00000+0  15008-3 0  9992
2 81640  65.8246  95.9308 0996734 210.8825 142.9739 12.55571712357231
UNKNOWN                 
1 81652U 76077    22226.42198521  .00000476  00000+0  63084-3 0  9995
2 81652 102.1699 208.4841 0377620 191.5375 326.3008 13.41646941415387
UNKNOWN                 
1 81661U          22225.74191658  .00005532  00000+0  14382-2 0  9990
2 81661  98.4252 143.9309 0066804 324.4894  35.1862 14.48716302358187
UNKNOWN                 
1 81667U          22224.17018373  .00000978  00000+0  33069-3 0  9997
2 81667  74.0445 136.2145 0017176  14.4324 345.7317 14.38111694280947
UNKNOWN                 
1 81674U          22224.61514598  .00000434  00000+0  31458-3 0  9991
2 81674  66.8242 179.3928 0024911  10.1824 162.7326 14.05520701442280
UNKNOWN                 
1 81678U          22224.87760683  .00008309  00000+0  10368-2 0  9996
2 81678  65.8308  81.7830 0050779 327.7548  44.9534 14.81982633467183
UNKNOWN                 
1 81683U          22226.12856329  .00001212  00000+0  34432-3 0  9990
2 81683  81.2228 123.1284 0032136  18.1802 342.0529 14.44619159 49762
UNKNOWN                 
1 81693U 73086    22225.95996491  .00000447  00000+0  36025-2 0  9998
2 81693 101.0799  48.1988 0370477 213.9119 143.7743 12.23420980818825
UNKNOWN                 
1 81696U          22226.54637841  .00012231  00000+0  10931-2 0  9996
2 81696  97.4513 137.7023 0201729 342.3973  17.0317 14.81695612331982
UNKNOWN                 
1 81732U          22225.43915168  .00015900  00000+0  16347-2 0  9998
2 81732  65.7344  25.7056 0239133 145.0575 216.6501 14.71593050463891
UNKNOWN                 
1 81745U          22226.21328623  .00001002  00000+0  39975-3 0  9994
2 81745  71.0039 147.3693 0008508 305.1693 206.5171 14.30943718455217
UNKNOWN                 
1 81749U          22226.46366701  .00000038  00000+0  25467-3 0  9993
2 81749  99.6750  52.2782 0370415 349.5911  37.3176 12.77018277406723
UNKNOWN                 
1 81775U          22226.19574930  .00001670  00000+0  75721-3 0  9998
2 81775  82.9282 133.4156 0026601   4.4610 355.6804 14.21221707451484
UNKNOWN                 
1 81779U          22226.29474793  .00004489  00000+0  20984+0 0  9997
2 81779  54.2218 204.2005 1715234  75.9054 302.5610  9.24128468367425
UNKNOWN                 
1 81792U          22224.91569354  .00000260  00000+0  13484-3 0  9991
2 81792  65.8278 296.3240 0905795 102.2172 268.1678 13.04660013415924
UNKNOWN                 
1 81794U          22225.19906762  .00016954  00000+0  19057-2 0  9990
2 81794  81.1845 299.7341 0001869 201.6020 158.5114 14.86631044468255
UNKNOWN                 
1 81798U          22226.08774108  .00007920  00000+0  16535-2 0  9991
2 81798  74.0139 260.9831 0046537 281.8567  77.7381 14.59350565409863
UNKNOWN                 
1 81812U          22226.32369414 -.00002185  00000+0 -14825-1 0  9994
2 81812 103.7169 356.0239 0355866 139.3629 223.4565 12.29488836390632
UNKNOWN                 
1 81813U          22226.42190179  .00001490  00000+0  43814-3 0  9994
2 81813  99.0768  78.8774 0018286 139.0090 221.2477 14.45242219459311
UNKNOWN                 
1 81816U 77121    22225.59545108  .00000297  00000+0  28987-3 0  9996
2 81816  66.2384  76.5200 0196199 235.4938 122.7470 13.84353874440584
UNKNOWN                 
1 81817U          22225.85499070  .00007616  00000+0  73602-3 0  9990
2 81817  65.7272 345.2740 0305223 284.8193  71.9290 14.64334256466474
UNKNOWN                 
1 81818U          22223.56128688  .00001680  00000+0  40048-3 0  9994
2 81818  65.7535 278.3189 0657022 118.7765 248.0907 13.71868357480083
UNKNOWN                 
1 81819U          22225.11941856  .00000280  00000+0  22770-2 0  9994
2 81819 102.2207 290.5656 0034352 224.6705 135.1592 12.45478779396298
UNKNOWN                 
1 81821U          22224.99805736  .00056308 -90053-6  67417-3 0  9993
2 81821  34.0558 196.6866 2031813 302.5942  39.4272 11.48778656428107
UNKNOWN                 
1 81824U          22223.81153201  .00001752  00000+0  86854-3 0  9993
2 81824  65.8503  13.9696 0059312 274.0198  85.4109 14.18836215450798
UNKNOWN                 
1 81833U          22224.77413556  .00000195  00000+0  68747-3 0  9992
2 81833  90.2691 335.3342 0024439 332.4858  27.4965 12.93087701295074
UNKNOWN                 
1 81838U          22226.24671806  .00001609  00000+0  54835-3 0  9999
2 81838  67.7672 151.3990 0031745 101.7094  54.1787 14.38468277457430
UNKNOWN                 
1 81844U          22225.84909396  .00001499  00000+0  73294-3 0  9996
2 81844  82.9264 182.9767 0075781 228.3847 131.0824 14.15898584449795
UNKNOWN                 
1 81845U          22226.57340125  .00000697  00000+0  10095-3 0  9996
2 81845  97.7747  85.5081 0102568 310.7051  77.8165 14.75773465469669
UNKNOWN                 
1 81864U          22222.15106849  .00001313  00000+0  54498-3 0  9991
2 81864  65.6750  24.0746 0791443 180.0122 180.1039 13.26345426388628
UNKNOWN                 
1 81865U 87062    22226.51729580  .00000655  00000+0  57644-3 0  9996
2 81865  82.8047 243.0658 0069427 204.4344 309.5463 13.82930474440162
UNKNOWN                 
1 81872U          22226.02233481  .00115172  00000+0  71506-2 0  9990
2 81872  62.0048 233.8860 1734988 341.5149  12.9584 11.86973703202564
UNKNOWN                 
1 81873U          22222.35515746  .00001519  00000+0  86443-3 0  9996
2 81873  99.0913 266.3496 0070006 288.1453  71.2103 14.10175537396916
UNKNOWN                 
1 81877U          22199.50839911  .00000208  00000+0  37161-3 0  9990
2 81877  65.9318 114.7281 0071275 320.9448  38.6473 13.60574423958784
UNKNOWN                 
1 81893U 70025    22225.23072202  .00000878  00000+0  10064-2 0  9999
2 81893  99.9563 137.5191 0016878 160.7474 199.4313 13.72763044436817
UNKNOWN                 
1 81899U          22226.08581377  .00000176  00000+0  56877-3 0  9997
2 81899 102.4305  96.4797 0178167 256.6219 101.4969 13.16517750418677
UNKNOWN                 
1 81902U          22221.89122107  .00009209  00000+0  11753-2 0  9997
2 81902  81.6270  25.4998 0268850  67.4835 295.4583 14.59051263459881
UNKNOWN                 
1 81905U          22226.48139542  .00386013  20455-4  10902-1 0  9997
2 81905  61.7017 347.9704 1089040 170.1032 192.3484 13.38127366522704
UNKNOWN                 
1 81921U          22224.84707050  .00001034  00000+0  42998-3 0  9996
2 81921  65.7077 280.8449 0893666 271.0505  78.8396 13.07738558868873
UNKNOWN                 
1 81946U 87079    22225.92434209  .00000181  00000+0  76287-3 0  9997
2 81946  66.4244 331.4790 0678591 219.9392 255.3897 12.42003120396736
UNKNOWN                 
1 81947U          22226.50874536  .00001814  00000+0  22137-3 0  9992
2 81947  66.0810 265.2736 0452952 159.5811 202.4065 14.33131621455660
UNKNOWN                 
1 81964U          22224.49711152  .00000096  00000+0  13000-3 0  9991
2 81964  66.5855  40.9179 0037007 183.0474 177.0385 13.94567410444103
UNKNOWN                 
1 81969U          22224.69238900  .00001801  00000+0  19908-3 0  9991
2 81969  86.6705 312.9611 0009407 210.5109 149.5570 14.86797912258031
UNKNOWN                 
1 81995U          22221.85264434  .00005605  00000+0  12839-2 0  9997
2 81995  65.7563  20.3156 0592623 180.6233 179.4171 13.83527259434223
UNKNOWN                 
1 82039U          22225.57451752  .00006264  00000+0  13526-2 0  9997
2 82039  99.0715 266.4487 0042246 167.7019 192.5219 14.58179222379594
UNKNOWN                 
1 82043U          22226.49476793  .00000851  00000+0  27870-3 0  9990
2 82043  97.9656 112.4346 0260910 111.3798 251.5437 14.23042447400372
UNKNOWN                 
1 82044U          22213.14547757  .00000469  00000+0  53749-3 0  9997
2 82044  99.9296 281.9763 0065496 208.7816 150.9712 13.74519226392821
UNKNOWN                 
1 82051U          22224.90983726  .00001825  00000+0  83315-3 0  9990
2 82051  98.8214 291.3175 0117272 197.4596 162.2532 14.19199833398817
UNKNOWN                 
1 82073U          22226.50505986  .00000663  00000+0  21235-3 0  9992
2 82073  97.6901  56.3685 0241337   4.4753 355.8511 14.27086309401003
UNKNOWN                 
1 82112U          22225.24503856  .00003693  00000+0  97170-3 0  9997
2 82112  98.6533 331.2996 0097330  51.8076 309.1832 14.46892787405283
UNKNOWN                 
1 82134U          22213.60685700  .00728915  00000+0  12407+0 0  9994
2 82134  65.3897  64.6116 2225455 144.5966 232.5472 10.67200928 18449
UNKNOWN                 
1 82139U          22226.33279321  .00001285  00000+0  76842-3 0  9992
2 82139  99.1164 267.0207 0092757 216.9023 142.5739 14.06884409308615
UNKNOWN                 
1 82162U          22225.04284646  .00001269  00000+0  22784-2 0  9998
2 82162 100.3706  81.1927 0053562 291.9907  67.5535 13.43325910340261
UNKNOWN                 
1 82168U          22223.73798991  .00016595  00000+0  20156-2 0  9990
2 82168  74.0043  27.8457 0013588  62.7532 297.5029 14.83451013309330
